{"fetched_at":"2026-04-19T12:58:44Z","count":1898,"tles":[{"name":"FENGYUN 1C DEB","line1":"1 31647U 99025CBD 23178.54365023  .00007017  00000+0  30445-2 0  9997","line2":"2 31647  98.0690 279.3832 0155314 256.5538 101.8290 14.18195008826578","category":"Weather"},{"name":"STARLINK-2285","line1":"1 48019U 21024AU  26108.99093195  .00003879  00000+0  13664-3 0  9992","line2":"2 48019  53.1577 119.5888 0001355  72.5538 287.5612 15.31717067281095","category":"Starlink"},{"name":"STARLINK-32621","line1":"1 62303U 24239C   26108.96974643  .00018148  00000+0  62320-3 0  9996","line2":"2 62303  53.1597 353.8475 0001513  73.1302 286.9864 15.30208460 75731","category":"Starlink"},{"name":"STARLINK-36923","line1":"1 68016U 26040B   26108.59105463  .00014454  00000+0  43760-3 0  9993","line2":"2 68016  97.2883  58.0495 0003446  84.1547 276.0089 15.34272054  7571","category":"Starlink"},{"name":"ARIANE 5 R/B","line1":"1 27462U 02035C   26104.90013370 -.00000057  00000+0 -95674-3 0  9994","line2":"2 27462   5.2203 122.6284 7152765  28.7103  93.3226  2.22711651193537","category":"Other"},{"name":"STARLINK-5704","line1":"1 55486U 23015AP  26108.70938748  .00000327  00000+0  21406-4 0  9990","line2":"2 55486  43.0034 113.8469 0001081 278.0684  82.0045 15.27579579176719","category":"Starlink"},{"name":"STARLINK-31840","line1":"1 60127U 24118Q   26108.51736811 -.00000088  00000+0  91669-5 0  9993","line2":"2 60127  53.1608 201.7634 0001218  90.1931 269.9209 15.30194880101793","category":"Starlink"},{"name":"CZ-7A R/B","line1":"1 66314U 25250B   25316.23333361  .31292675 -21828-4  14021-2 0  9996","line2":"2 66314  19.9176  96.2576 3166388 167.6396 202.4838  9.41652562   864","category":"Other"},{"name":"COSMOS 2251 DEB","line1":"1 34788U 93036AAR 23178.87900773  .00011936  00000+0  84765-3 0  9995","line2":"2 34788  73.9899  41.5057 0114371  32.1858 328.6240 14.99549182778079","category":"Other"},{"name":"TURKSAT 5B","line1":"1 50212U 21126A   26108.93308609  .00000150  00000+0  00000+0 0  9991","line2":"2 50212   0.0749 339.6481 0004856   1.9117 243.4034  1.00270246 15703","category":"Other"},{"name":"2025-067A","line1":"1 63428U 25067A   25119.18231352  .00082526  00000+0  18519-2 0  9994","line2":"2 63428  54.9952  83.0088 0008340  17.5247 342.6069 15.42707415  4322","category":"Other"},{"name":"UNKNOWN","line1":"1 82965U          26100.70233345  .00000880  00000+0  12370-2 0  9996","line2":"2 82965 100.1062 189.0671 0004053 158.3295 201.8016 13.60290151540622","category":"Other"},{"name":"FENGYUN 1C DEB","line1":"1 30771U 99025AUH 26104.38369173  .00003668  00000+0  10520-2 0  9998","line2":"2 30771  98.9119  90.3925 0020879 294.9525  64.9496 14.45446963988343","category":"Weather"},{"name":"COSMOS 2251 DEB","line1":"1 47119U 93036BYM 23177.85042918  .00010561  00000+0  48099-2 0  9994","line2":"2 47119  74.0877 346.5357 0176856 246.0302 181.6099 14.13795429581474","category":"Other"},{"name":"AFRL-XVI","line1":"1 56942U 23084L   26007.02602201  .11573472  26533-5  39259-3 0  9996","line2":"2 56942  97.5421 169.5455 0008175 271.3488  88.6876 16.43996682144551","category":"Other"},{"name":"IRIDIUM 33 DEB","line1":"1 38017U 97051YD  26104.27883166  .00003063  00000+0  71006-3 0  9993","line2":"2 38017  86.3364 112.7639 0088458  58.8934 302.0913 14.52344387631795","category":"Other"},{"name":"VARISAT 1C & CELESTIS-21","line1":"1 52766U 22057AL  23361.57582282  .00015399  00000+0  62302-3 0  9998","line2":"2 52766  97.5665 119.3078 0011241  21.6722 338.4989 15.24744119 88091","category":"Other"},{"name":"STARLINK-30552","line1":"1 57999U 23153J   26108.52270427  .00049896  00000+0  18347-2 0  9999","line2":"2 57999  43.0034 202.4971 0001680 251.7881 108.2788 15.27142378140983","category":"Starlink"},{"name":"STARLINK-34164","line1":"1 64177U 25113H   26108.80256483  .00014682  00000+0  50659-3 0  9998","line2":"2 64177  53.1563 265.0241 0000781  85.1530 274.9560 15.30216575 51204","category":"Starlink"},{"name":"CZ-6A DEB","line1":"1 60894U 24140KZ  24249.20948974  .00004125  00000+0  21493-2 0  9994","line2":"2 60894  89.0777 348.1636 0078378 152.0315 208.5118 14.12826006  2476","category":"Other"},{"name":"STARLINK-36191","line1":"1 67023U 25293W   26109.07656179  .00003856  00000+0  33074-3 0  9999","line2":"2 67023  70.0027 352.7764 0002537 270.8941  89.1928 14.98339256 20939","category":"Starlink"},{"name":"COMSTAR 3","line1":"1 10975U 78068A   26046.30533605  .00000040  00000+0  00000+0 0  9996","line2":"2 10975   9.7352 315.9490 0024765 320.1612 232.8453  0.99194959 44987","category":"Other"},{"name":"FREGAT R/B","line1":"1 41033U 15066B   26103.09643260 -.00001425  00000+0  90331-4 0  9993","line2":"2 41033  62.8900 321.1463 7436512 267.0024  14.3520  2.01965942 76609","category":"Other"},{"name":"STARLINK-4662","line1":"1 53738U 22107AQ  26108.21535682 -.00004675  00000+0 -27574-3 0  9998","line2":"2 53738  53.2174  86.4565 0001492  83.7527 276.3635 15.08848661200418","category":"Starlink"},{"name":"STARLINK-31276","line1":"1 59075U 24041B   26108.62318719  .00000109  00000+0  13474-4 0  9993","line2":"2 59075  43.0007  84.7688 0001077 271.0078  89.0650 15.27577128120436","category":"Starlink"},{"name":"FFLY02","line1":"1 65322U 25188H   26108.96293553  .00001019  00000+0  10374-3 0  9999","line2":"2 65322  97.7385 185.1960 0012170 328.1769  31.8713 14.92867498 35072","category":"Other"},{"name":"FENGYUN 1C DEB","line1":"1 31755U 99025CFE 26103.23624950  .00000396  00000+0  21657-3 0  9990","line2":"2 31755  98.7899  97.1364 0189356  39.4579 337.7193 14.08493105653824","category":"Weather"},{"name":"STARLINK-2430","line1":"1 48100U 21027J   26108.90217680  .00002576  00000+0  94731-4 0  9992","line2":"2 48100  53.1589 325.6170 0001615  83.7292 276.3893 15.31713723278844","category":"Starlink"},{"name":"BANDWAGON-2 OBJECT S","line1":"1 62393U 24247S   26108.33245810  .00113021  00000+0  10086-2 0  9999","line2":"2 62393  44.9677 211.2409 0012996 341.8685  18.1748 15.67280087 74377","category":"Other"},{"name":"STARLINK-37051","line1":"1 68080U 26042M   26107.97054999  .00115381  00000+0  74626-3 0  9990","line2":"2 68080  53.1575 358.8236 0000689 109.9161 250.1934 15.75250228  8284","category":"Starlink"},{"name":"COSMOS 917 DEB","line1":"1 27887U 77047K   26104.40913669  .00000356  00000+0  00000+0 0  9990","line2":"2 27887  63.3243 242.1764 6650436  10.5060   2.4638  1.97911721 26732","category":"Other"},{"name":"STARLINK-5734","line1":"1 55612U 23020AV  26108.74487458  .00000457  00000+0  26710-4 0  9995","line2":"2 55612  43.0050 128.1478 0001136 299.7971  60.2767 15.26746678175169","category":"Starlink"},{"name":"TIANHUI 5D","line1":"1 60212U 24126B   26108.36851888  .00000285  00000+0  37368-4 0  9995","line2":"2 60212  97.8205 116.7790 0002117  96.5037 263.6421 14.87577442 97005","category":"Other"},{"name":"SHIYAN-32 02","line1":"1 66378U 25255C   26108.95709301  .00015419  00000+0  37075-3 0  9994","line2":"2 66378  52.9931 295.3217 0010873   4.7093 355.4011 15.41475828 24822","category":"Other"},{"name":"COSMOS 2251 DEB","line1":"1 34948U 93036AEB 23179.28684088  .00009389  00000+0  20552-2 0  9999","line2":"2 34948  74.0198  15.1623 0017127 280.3741 253.1966 14.57723875748392","category":"Other"},{"name":"STARLINK-3339","line1":"1 50820U 22001T   26108.95828918  .00000278  00000+0  35527-4 0  9999","line2":"2 50820  53.2192 348.3476 0001414  87.8807 272.2347 15.08838297236483","category":"Starlink"},{"name":"UNKNOWN","line1":"1 87029U          26102.05343897  .00000546  00000+0  35691-3 0  9997","line2":"2 87029  98.7420 138.0027 0080165 272.3659  86.8332 14.04780667609898","category":"Other"},{"name":"FENGYUN 1C DEB","line1":"1 30888U 99025AYA 26104.30371875  .00006841  00000+0  54951-3 0  9994","line2":"2 30888  99.4888 113.8570 0079011 122.1344 238.7571 14.98031218 17496","category":"Weather"},{"name":"ONEWEB-0120","line1":"1 47266U 20100J   26108.99269560  .00000497  00000+0  13454-2 0  9999","line2":"2 47266  87.8995   2.4350 0001705  76.3585 283.7733 13.12442951256967","category":"Other"},{"name":"2023-085K","line1":"1 57013U 23085K   23362.48291930  .00013056  00000+0  75305-3 0  9993","line2":"2 57013  97.4641 104.3925 0009955 324.8700  35.1873 15.12450819 29627","category":"Other"},{"name":"FENGYUN 1C DEB","line1":"1 38170U 99025ERT 23176.68883773  .00007984  00000+0  31169-2 0  9992","line2":"2 38170  98.7787 261.0133 0132691 115.6843 245.8108 14.25140620685308","category":"Weather"},{"name":"STARLINK-4126","line1":"1 52867U 22062AP  26108.52450714  .00000624  00000+0  57275-4 0  9996","line2":"2 52867  53.2173 205.2952 0001135  92.9681 267.1441 15.08843074211943","category":"Starlink"},{"name":"STARLINK-30576","line1":"1 58065U 23158Q   26108.85989519  .00003456  00000+0  13509-3 0  9992","line2":"2 58065  43.0063 160.1766 0001807 275.3438  84.7207 15.27573763139712","category":"Starlink"},{"name":"STARLINK-11694 [DTC]","line1":"1 64243U 25119L   26108.89838317  .00184418  00000+0  13998-2 0  9998","line2":"2 64243  42.9994 327.1819 0001648 248.3157 111.7535 15.70997056 51567","category":"Starlink"},{"name":"1998-067WY","line1":"1 60958U 98067WY  24349.42075503  .04075410  12054-4  11755-2 0  9994","line2":"2 60958  51.6097 126.6236 0011003 308.1303  51.8725 16.26505921 16807","category":"Other"},{"name":"STARLINK-35842","line1":"1 67087U 25298N   26108.84613867  .00006525  00000+0  55391-3 0  9997","line2":"2 67087  70.0016 273.1659 0002623 258.4215 101.6649 14.98344266 19236","category":"Starlink"},{"name":"GSAT0211 (GALILEO 14)","line1":"1 41549U 16030A   26109.13802890  .00000005  00000+0  00000+0 0  9995","line2":"2 41549  55.1141 223.3181 0002578   4.2933 355.7026  1.70474022 61669","category":"GPS"},{"name":"STARLINK-4761","line1":"1 53830U 22114N   26108.76366628  .00001682  00000+0  12369-3 0  9990","line2":"2 53830  53.2169 124.0499 0001081  80.5772 279.5342 15.08853657198889","category":"Starlink"}]}